CTC2_L_00422016-03
1 14798U 24621LM  26070.40847222  .00000000  00000+0  00000-0 0  9997
2 14798  50.0000 180.0000 0000000   0.0000   0.0000 12.53473438    16
CTC2_L_00422016-04
1 14799U 24412LD  26070.40847222  .00000000  00000+0  00000-0 0  9996
2 14799  50.0000 180.0000 0000000   0.0000  90.0000 12.53473438    16
CTC2_L_00422017-01
1 14800U 25636AZ  26070.40847222  .00000000  00000+0  00000-0 0  9998
2 14800  50.0000 192.0000 0000000   0.0000 192.0000 12.53473438    15
CTC2_L_00422017-02
1 14801U 26768BA  26070.40847222  .00000000  00000+0  00000-0 0  9996
2 14801  50.0000 192.0000 0000000   0.0000 282.0000 12.53473438    16
CTC2_L_00422017-03
1 14802U 26449DZ  26070.40847222  .00000000  00000+0  00000-0 0  9993
2 14802  50.0000 192.0000 0000000   0.0000  12.0000 12.53473438    18
CTC2_L_00422017-04
1 14803U 22141DR  26070.40847222  .00000000  00000+0  00000-0 0  9999
2 14803  50.0000 192.0000 0000000   0.0000 102.0000 12.53473438    19
CTC2_L_00422018-01
1 14804U 24008AW  26070.40847222  .00000000  00000+0  00000-0 0  9994
2 14804  50.0000 204.0000 0000000   0.0000 204.0000 12.53473438    17
CTC2_L_00422018-02
1 14805U 26374NB  26070.40847222  .00000000  00000+0  00000-0 0  9993
2 14805  50.0000 204.0000 0000000   0.0000 294.0000 12.53473438    17
CTC2_L_00422018-03
1 14806U 24767FZ  26070.40847222  .00000000  00000+0  00000-0 0  9998
2 14806  50.0000 204.0000 0000000   0.0000  24.0000 12.53473438    19
CTC2_L_00422018-04
1 14807U 23389IP  26070.40847222  .00000000  00000+0  00000-0 0  9998
2 14807  50.0000 204.0000 0000000   0.0000 114.0000 12.53473438    10
CTC2_L_00422019-01
1 14808U 25961ZE  26070.40847222  .00000000  00000+0  00000-0 0  9997
2 14808  50.0000 216.0000 0000000   0.0000 216.0000 12.53473438    17
CTC2_L_00422019-02
1 14809U 26827SG  26070.40847222  .00000000  00000+0  00000-0 0  9990
2 14809  50.0000 216.0000 0000000   0.0000 306.0000 12.53473438    18
CTC2_L_00422019-03
1 14810U 22617JY  26070.40847222  .00000000  00000+0  00000-0 0  9995
2 14810  50.0000 216.0000 0000000   0.0000  36.0000 12.53473438    10
CTC2_L_00422019-04
1 14811U 22760FD  26070.40847222  .00000000  00000+0  00000-0 0  9995
2 14811  50.0000 216.0000 0000000   0.0000 126.0000 12.53473438    11
CTC2_L_00422020-01
1 14812U 22793LR  26070.40847222  .00000000  00000+0  00000-0 0  9992
2 14812  50.0000 228.0000 0000000   0.0000 228.0000 12.53473438    18
CTC2_L_00422020-02
1 14813U 25796D   26070.40847222  .00000000  00000+0  00000-0 0  9999
2 14813  50.0000 228.0000 0000000   0.0000 318.0000 12.53473438    19
CTC2_L_00422020-03
1 14814U 24025XY  26070.40847222  .00000000  00000+0  00000-0 0  9994
2 14814  50.0000 228.0000 0000000   0.0000  48.0000 12.53473438    10
CTC2_L_00422020-04
1 14815U 22477CQ  26070.40847222  .00000000  00000+0  00000-0 0  9994
2 14815  50.0000 228.0000 0000000   0.0000 138.0000 12.53473438    11
CTC2_L_00422021-01
1 14816U 24333KE  26070.40847222  .00000000  00000+0  00000-0 0  9998
2 14816  50.0000 240.0000 0000000   0.0000 240.0000 12.53473438    10
CTC2_L_00422021-02
1 14817U 23289RR  26070.40847222  .00000000  00000+0  00000-0 0  9998
2 14817  50.0000 240.0000 0000000   0.0000 330.0000 12.53473438    11
CTC2_L_00422021-03
1 14818U 26673IM  26070.40847222  .00000000  00000+0  00000-0 0  9999
2 14818  50.0000 240.0000 0000000   0.0000  60.0000 12.53473438    12
CTC2_L_00422021-04
1 14819U 22021U   26070.40847222  .00000000  00000+0  00000-0 0  9993
2 14819  50.0000 240.0000 0000000   0.0000 150.0000 12.53473438    13
CTC2_L_00422022-01
1 14820U 23908SK  26070.40847222  .00000000  00000+0  00000-0 0  9990
2 14820  50.0000 252.0000 0000000   0.0000 252.0000 12.53473438    11
CTC2_L_00422022-02
1 14821U 25330VA  26070.40847222  .00000000  00000+0  00000-0 0  9992
2 14821  50.0000 252.0000 0000000   0.0000 342.0000 12.53473438    12
CTC2_L_00422022-03
1 14822U 25273OY  26070.40847222  .00000000  00000+0  00000-0 0  9999
2 14822  50.0000 252.0000 0000000   0.0000  72.0000 12.53473438    13
CTC2_L_00422022-04
1 14823U 26048BR  26070.40847222  .00000000  00000+0  00000-0 0  9991
2 14823  50.0000 252.0000 0000000   0.0000 162.0000 12.53473438    14
CTC2_L_00422023-01
1 14824U 23053LL  26070.40847222  .00000000  00000+0  00000-0 0  9995
2 14824  50.0000 264.0000 0000000   0.0000 264.0000 12.53473438    11
CTC2_L_00422023-02
1 14825U 24925UL  26070.40847222  .00000000  00000+0  00000-0 0  9995
2 14825  50.0000 264.0000 0000000   0.0000 354.0000 12.53473438    12
CTC2_L_00422023-03
1 14826U 23818VO  26070.40847222  .00000000  00000+0  00000-0 0  9996
2 14826  50.0000 264.0000 0000000   0.0000  84.0000 12.53473438    13
CTC2_L_00422023-04
1 14827U 25542WU  26070.40847222  .00000000  00000+0  00000-0 0  9993
2 14827  50.0000 264.0000 0000000   0.0000 174.0000 12.53473438    14
CTC2_L_00422024-01
1 14828U 23764QY  26070.40847222  .00000000  00000+0  00000-0 0  9998
2 14828  50.0000 276.0000 0000000   0.0000 276.0000 12.53473438    11
CTC2_L_00422024-02
1 14829U 25934N   26070.40847222  .00000000  00000+0  00000-0 0  9990
2 14829  50.0000 276.0000 0000000   0.0000   6.0000 12.53473438    13
CTC2_L_00422024-03
1 14830U 25603CK  26070.40847222  .00000000  00000+0  00000-0 0  9995
2 14830  50.0000 276.0000 0000000   0.0000  96.0000 12.53473438    14
CTC2_L_00422024-04
1 14831U 22221XT  26070.40847222  .00000000  00000+0  00000-0 0  9999
2 14831  50.0000 276.0000 0000000   0.0000 186.0000 12.53473438    15
CTC2_L_00422025-01
1 14832U 26570DQ  26070.40847222  .00000000  00000+0  00000-0 0  9991
2 14832  50.0000 288.0000 0000000   0.0000 288.0000 12.53473438    12
CTC2_L_00422025-02
1 14833U 26366BB  26070.40847222  .00000000  00000+0  00000-0 0  9995
2 14833  50.0000 288.0000 0000000   0.0000  18.0000 12.53473438    14
CTC2_L_00422025-03
1 14834U 25202PA  26070.40847222  .00000000  00000+0  00000-0 0  9994
2 14834  50.0000 288.0000 0000000   0.0000 108.0000 12.53473438    15
CTC2_L_00422025-04
1 14835U 25039TL  26070.40847222  .00000000  00000+0  00000-0 0  9993
2 14835  50.0000 288.0000 0000000   0.0000 198.0000 12.53473438    15
CTC2_L_00422026-01
1 14836U 24049NA  26070.40847222  .00000000  00000+0  00000-0 0  9994
2 14836  50.0000 300.0000 0000000   0.0000 300.0000 12.53473438    16
CTC2_L_00422026-02
1 14837U 26635UL  26070.40847222  .00000000  00000+0  00000-0 0  9998
2 14837  50.0000 300.0000 0000000   0.0000  30.0000 12.53473438    17
CTC2_L_00422026-03
1 14838U 25770CL  26070.40847222  .00000000  00000+0  00000-0 0  9998
2 14838  50.0000 300.0000 0000000   0.0000 120.0000 12.53473438    18
CTC2_L_00422026-04
1 14839U 25701BT  26070.40847222  .00000000  00000+0  00000-0 0  9993
2 14839  50.0000 300.0000 0000000   0.0000 210.0000 12.53473438    19
CTC2_L_00422027-01
1 14840U 23288MI  26070.40847222  .00000000  00000+0  00000-0 0  9993
2 14840  50.0000 312.0000 0000000   0.0000 312.0000 12.53473438    17
CTC2_L_00422027-02
1 14841U 23648JC  26070.40847222  .00000000  00000+0  00000-0 0  9994
2 14841  50.0000 312.0000 0000000   0.0000  42.0000 12.53473438    18
CTC2_L_00422027-03
1 14842U 26994VT  26070.40847222  .00000000  00000+0  00000-0 0  9992
2 14842  50.0000 312.0000 0000000   0.0000 132.0000 12.53473438    19
CTC2_L_00422027-04
1 14843U 26948BM  26070.40847222  .00000000  00000+0  00000-0 0  9992
2 14843  50.0000 312.0000 0000000   0.0000 222.0000 12.53473438    10
CTC2_L_00422028-01
1 14844U 26215SH  26070.40847222  .00000000  00000+0  00000-0 0  9990
2 14844  50.0000 324.0000 0000000   0.0000 324.0000 12.53473438    17
CTC2_L_00422028-02
1 14845U 24131GR  26070.40847222  .00000000  00000+0  00000-0 0  9996
2 14845  50.0000 324.0000 0000000   0.0000  54.0000 12.53473438    18
CTC2_L_00422028-03
1 14846U 26316SY  26070.40847222  .00000000  00000+0  00000-0 0  9994
2 14846  50.0000 324.0000 0000000   0.0000 144.0000 12.53473438    19
CTC2_L_00422028-04
1 14847U 26253DZ  26070.40847222  .00000000  00000+0  00000-0 0  9995
2 14847  50.0000 324.0000 0000000   0.0000 234.0000 12.53473438    10
CTC2_L_00422029-01
1 14848U 25081EX  26070.40847222  .00000000  00000+0  00000-0 0  9994
2 14848  50.0000 336.0000 0000000   0.0000 336.0000 12.53473438    17
CTC2_L_00422029-02
1 14849U 26892AQ  26070.40847222  .00000000  00000+0  00000-0 0  9996
2 14849  50.0000 336.0000 0000000   0.0000  66.0000 12.53473438    18
CTC2_L_00422029-03
1 14850U 22008ZI  26070.40847222  .00000000  00000+0  00000-0 0  9993
2 14850  50.0000 336.0000 0000000   0.0000 156.0000 12.53473438    10
CTC2_L_00422029-04
1 14851U 23016YM  26070.40847222  .00000000  00000+0  00000-0 0  9994
2 14851  50.0000 336.0000 0000000   0.0000 246.0000 12.53473438    11
CTC2_L_00422030-01
1 14852U 22974KL  26070.40847222  .00000000  00000+0  00000-0 0  9997
2 14852  50.0000 348.0000 0000000   0.0000 348.0000 12.53473438    18
CTC2_L_00422030-02
1 14853U 23129SW  26070.40847222  .00000000  00000+0  00000-0 0  9991
2 14853  50.0000 348.0000 0000000   0.0000  78.0000 12.53473438    19
CTC2_L_00422030-03
1 14854U 26615NW  26070.40847222  .00000000  00000+0  00000-0 0  9995
2 14854  50.0000 348.0000 0000000   0.0000 168.0000 12.53473438    10
CTC2_L_00422030-04
1 14855U 24251LH  26070.40847222  .00000000  00000+0  00000-0 0  9990
2 14855  50.0000 348.0000 0000000   0.0000 258.0000 12.53473438    11
